[{"OBJECT_NAME":"TERRA","OBJECT_ID":"1999-068A","EPOCH":"2026-03-09T22:17:18.178368","MEAN_MOTION":14.61015031,"ECCENTRICITY":0.00027192,"INCLINATION":97.9593,"RA_OF_ASC_NODE":122.3543,"ARG_OF_PERICENTER":150.7418,"MEAN_ANOMALY":312.3442,"EPHEMERIS_TYPE":0,"CLASSIFICATION_TYPE":"U","NORAD_CAT_ID":25994,"ELEMENT_SET_NO":999,"REV_AT_EPOCH":39511,"BSTAR":0.00012453868,"MEAN_MOTION_DOT":5.67e-6,"MEAN_MOTION_DDOT":0},{"OBJECT_NAME":"SL-16 DEB","OBJECT_ID":"1992-093AB","EPOCH":"2026-03-09T20:23:52.154016","MEAN_MOTION":14.76149468,"ECCENTRICITY":0.00686693,"INCLINATION":70.6152,"RA_OF_ASC_NODE":308.2521,"ARG_OF_PERICENTER":218.2596,"MEAN_ANOMALY":223.5863,"EPHEMERIS_TYPE":0,"CLASSIFICATION_TYPE":"U","NORAD_CAT_ID":22338,"ELEMENT_SET_NO":999,"REV_AT_EPOCH":74085,"BSTAR":0.0005246179,"MEAN_MOTION_DOT":3.699e-5,"MEAN_MOTION_DDOT":0}]
